{
    "links": {
        "self": "http://www.neowsapp.com/rest/v1/neo/3789694?api_key=iIulBulltgU6a56xZRHN4H3l9WmuAYTsLGpBGhQ2"
    },
    "id": "3789694",
    "neo_reference_id": "3789694",
    "name": "(2017 WR15)",
    "designation": "2017 WR15",
    "nasa_jpl_url": "http://ssd.jpl.nasa.gov/sbdb.cgi?sstr=3789694",
    "absolute_magnitude_h": 24.6,
    "estimated_diameter": {
        "kilometers": {
            "estimated_diameter_min": 0.0319561887,
            "estimated_diameter_max": 0.0714562102
        },
        "meters": {
            "estimated_diameter_min": 31.9561886721,
            "estimated_diameter_max": 71.4562101727
        },
        "miles": {
            "estimated_diameter_min": 0.0198566489,
            "estimated_diameter_max": 0.0444008168
        },
        "feet": {
            "estimated_diameter_min": 104.8431420431,
            "estimated_diameter_max": 234.436392583
        }
    },
    "is_potentially_hazardous_asteroid": false,
    "close_approach_data": [
        {
            "close_approach_date": "2017-11-23",
            "close_approach_date_full": "2017-Nov-23 06:27",
            "epoch_date_close_approach": 1511418420000,
            "relative_velocity": {
                "kilometers_per_second": "24.4737412298",
                "kilometers_per_hour": "88105.4684271446",
                "miles_per_hour": "54745.3117568555"
            },
            "miss_distance": {
                "astronomical": "0.0382828484",
                "lunar": "14.8920280276",
                "kilometers": "5727032.578172908",
                "miles": "3558613.0289978104"
            },
            "orbiting_body": "Earth"
        }
    ],
    "orbital_data": {
        "orbit_id": "3",
        "orbit_determination_date": "2017-11-28 06:49:10",
        "first_observation_date": "2017-11-25",
        "last_observation_date": "2017-11-28",
        "data_arc_in_days": 3,
        "observations_used": 34,
        "orbit_uncertainty": "9",
        "minimum_orbit_intersection": ".0286368",
        "jupiter_tisserand_invariant": "3.308",
        "epoch_osculation": "2458083.5",
        "eccentricity": ".7179773158930561",
        "semi_major_axis": "2.083210679039475",
        "inclination": "23.06550784395928",
        "ascending_node_longitude": "65.82771415669683",
        "orbital_period": "1098.242425520788",
        "perihelion_distance": ".5875126672629619",
        "perihelion_argument": "265.5123072974334",
        "aphelion_distance": "3.578908690815988",
        "perihelion_time": "2458033.853110027574",
        "mean_anomaly": "16.27407571838979",
        "mean_motion": ".3277964788414431",
        "equinox": "J2000",
        "orbit_class": {
            "orbit_class_type": "APO",
            "orbit_class_description": "Near-Earth asteroid orbits which cross the Earth’s orbit similar to that of 1862 Apollo",
            "orbit_class_range": "a (semi-major axis) > 1.0 AU; q (perihelion) < 1.017 AU"
        }
    },
    "is_sentry_object": false
}